[{"OBJECT_NAME":"STARLINK-3670","OBJECT_ID":"2022-029U","EPOCH":"2026-03-09T18:48:30.416832","MEAN_MOTION":15.08841896,"ECCENTRICITY":0.00014139,"INCLINATION":53.2173,"RA_OF_ASC_NODE":88.6985,"ARG_OF_PERICENTER":84.2717,"MEAN_ANOMALY":275.8437,"EPHEMERIS_TYPE":0,"CLASSIFICATION_TYPE":"U","NORAD_CAT_ID":52106,"ELEMENT_SET_NO":999,"REV_AT_EPOCH":22066,"BSTAR":-1.73813e-6,"MEAN_MOTION_DOT":-3.16e-6,"MEAN_MOTION_DDOT":0},{"OBJECT_NAME":"FENGYUN 1C DEB","OBJECT_ID":"1999-025BZZ","EPOCH":"2026-03-09T13:05:44.544480","MEAN_MOTION":14.97363263,"ECCENTRICITY":0.00745573,"INCLINATION":99.0712,"RA_OF_ASC_NODE":279.0573,"ARG_OF_PERICENTER":15.484,"MEAN_ANOMALY":344.8634,"EPHEMERIS_TYPE":0,"CLASSIFICATION_TYPE":"U","NORAD_CAT_ID":31619,"ELEMENT_SET_NO":999,"REV_AT_EPOCH":64782,"BSTAR":0.0036839182,"MEAN_MOTION_DOT":0.00045478,"MEAN_MOTION_DDOT":0}]
